{"type": "FeatureCollection", "features": [ {"type": "Feature", "properties": {"norad_id": 31092, "name": "FENGYUN 1C DEB", "group": "fengyun-1c-debris", "lat": -78.2490777689968, "lon": 157.56317766500794, "alt_km": 1272.9510815092444, "timestamp": "2025-12-12T07:43:20.794524+00:00", "meta": {"OBJECT_NAME": "FENGYUN 1C DEB", "OBJECT_ID": "1999-025BGN", "EPOCH": "2025-11-15T07:00:52.552224", "MEAN_MOTION": 13.46401433, "ECCENTRICITY": 0.03278725, "INCLINATION": 99.7115, "RA_OF_ASC_NODE": 75.9227, "ARG_OF_PERICENTER": 204.4209, "MEAN_ANOMALY": 154.1084, "EPHEMERIS_TYPE": 0, "CLASSIFICATION_TYPE": "U", "NORAD_CAT_ID": 31092, "ELEMENT_SET_NO": 999, "REV_AT_EPOCH": 91512, "BSTAR": 0.0042000132, "MEAN_MOTION_DOT": 3.457e-05, "MEAN_MOTION_DDOT": 0}, "tle": {"line1": "1 31092U 99025BGN 25319.29227491  .00003457  00000+0  42000-2 0  9992", "line2": "2 31092  99.7115  75.9227 0327872 204.4209 154.1084 13.46401433915121"}}, "geometry": {"type": "Point", "coordinates": [157.56317766500794, -78.2490777689968]}}, {"type": "Feature", "properties": {"norad_id": 31093, "name": "FENGYUN 1C DEB", "group": "fengyun-1c-debris", "lat": 17.177104797907667, "lon": -177.32101521255981, "alt_km": 1097.7304537032123, "timestamp": "2025-12-12T07:43:20.794534+00:00", "meta": {"OBJECT_NAME": "FENGYUN 1C DEB", "OBJECT_ID": "1999-025BGP", "EPOCH": "2025-12-11T00:19:41.026656", "MEAN_MOTION": 13.8062946, "ECCENTRICITY": 0.02081886, "INCLINATION": 98.5948, "RA_OF_ASC_NODE": 184.1677, "ARG_OF_PERICENTER": 227.8799, "MEAN_ANOMALY": 130.4497, "EPHEMERIS_TYPE": 0, "CLASSIFICATION_TYPE": "U", "NORAD_CAT_ID": 31093, "ELEMENT_SET_NO": 999, "REV_AT_EPOCH": 94483, "BSTAR": 0.00062206251, "MEAN_MOTION_DOT": 7.29e-06, "MEAN_MOTION_DDOT": 0}, "tle": {"line1": "1 31093U 99025BGP 25345.01366929  .00000729  00000+0  62206-3 0  9992", "line2": "2 31093  98.5948 184.1677 0208188 227.8799 130.4497 13.80629460944831"}}, "geometry": {"type": "Point", "coordinates": [-177.32101521255981, 17.177104797907667]}}, {"type": "Feature", "properties": {"norad_id": 31094, "name": "FENGYUN 1C DEB", "group": "fengyun-1c-debris", "lat": 68.40192016361149, "lon": 57.38030956639565, "alt_km": 842.6182525649274, "timestamp": "2025-12-12T07:43:20.794545+00:00", "meta": {"OBJECT_NAME": "FENGYUN 1C DEB", "OBJECT_ID": "1999-025BGQ", "EPOCH": "2025-12-11T20:56:02.157216", "MEAN_MOTION": 14.02037283, "ECCENTRICITY": 0.01064457, "INCLINATION": 98.8559, "RA_OF_ASC_NODE": 213.7519, "ARG_OF_PERICENTER": 49.402, "MEAN_ANOMALY": 311.6349, "EPHEMERIS_TYPE": 0, "CLASSIFICATION_TYPE": "U", "NORAD_CAT_ID": 31094, "ELEMENT_SET_NO": 999, "REV_AT_EPOCH": 95607, "BSTAR": 0.0022166177, "MEAN_MOTION_DOT": 3.513e-05, "MEAN_MOTION_DDOT": 0}, "tle": {"line1": "1 31094U 99025BGQ 25345.87224719  .00003513  00000+0  22166-2 0  9991", "line2": "2 31094  98.8559 213.7519 0106445  49.4020 311.6349 14.02037283956074"}}, "geometry": {"type": "Point", "coordinates": [57.38030956639565, 68.40192016361149]}}, {"type": "Feature", "properties": {"norad_id": 31095, "name": "FENGYUN 1C DEB", "group": "fengyun-1c-debris", "lat": -13.208034611002425, "lon": 130.87724502975357, "alt_km": 1578.4197841591267, "timestamp": "2025-12-12T07:43:20.794555+00:00", "meta": {"OBJECT_NAME": "FENGYUN 1C DEB", "OBJECT_ID": "1999-025BGR", "EPOCH": "2025-12-10T04:20:23.393184", "MEAN_MOTION": 13.06664337, "ECCENTRICITY": 0.0499951, "INCLINATION": 98.5613, "RA_OF_ASC_NODE": 127.1367, "ARG_OF_PERICENTER": 197.9865, "MEAN_ANOMALY": 160.2986, "EPHEMERIS_TYPE": 0, "CLASSIFICATION_TYPE": "U", "NORAD_CAT_ID": 31095, "ELEMENT_SET_NO": 999, "REV_AT_EPOCH": 89414, "BSTAR": 0.00070249, "MEAN_MOTION_DOT": 3.95e-06, "MEAN_MOTION_DDOT": 0}, "tle": {"line1": "1 31095U 99025BGR 25344.18082631  .00000395  00000+0  70249-3 0  9991", "line2": "2 31095  98.5613 127.1367 0499951 197.9865 160.2986 13.06664337894148"}}, "geometry": {"type": "Point", "coordinates": [130.87724502975357, -13.208034611002425]}}, {"type": "Feature", "properties": {"norad_id": 31097, "name": "FENGYUN 1C DEB", "group": "fengyun-1c-debris", "lat": 78.8857196839575, "lon": 56.532228053293224, "alt_km": 738.8119884648904, "timestamp": "2025-12-12T07:43:20.794565+00:00", "meta": {"OBJECT_NAME": "FENGYUN 1C DEB", "OBJECT_ID": "1999-025BGT", "EPOCH": "2025-12-09T14:39:53.425728", "MEAN_MOTION": 14.46886925, "ECCENTRICITY": 0.0015062, "INCLINATION": 98.8581, "RA_OF_ASC_NODE": 106.243, "ARG_OF_PERICENTER": 279.3966, "MEAN_ANOMALY": 91.9398, "EPHEMERIS_TYPE": 0, "CLASSIFICATION_TYPE": "U", "NORAD_CAT_ID": 31097, "ELEMENT_SET_NO": 999, "REV_AT_EPOCH": 96993, "BSTAR": 0.0040814, "MEAN_MOTION_DOT": 0.00014813, "MEAN_MOTION_DDOT": 0}, "tle": {"line1": "1 31097U 99025BGT 25343.61103502  .00014813  00000+0  40814-2 0  9995", "line2": "2 31097  98.8581 106.2430 0015062 279.3966  91.9398 14.46886925969931"}}, "geometry": {"type": "Point", "coordinates": [56.532228053293224, 78.8857196839575]}}, {"type": "Feature", "properties": {"norad_id": 31098, "name": "FENGYUN 1C DEB", "group": "fengyun-1c-debris", "lat": -54.55657787044411, "lon": 116.92260771891729, "alt_km": 721.5770407200071, "timestamp": "2025-12-12T07:43:20.794575+00:00", "meta": {"OBJECT_NAME": "FENGYUN 1C DEB", "OBJECT_ID": "1999-025BGU", "EPOCH": "2025-12-11T07:09:41.308128", "MEAN_MOTION": 14.51468692, "ECCENTRICITY": 0.00146633, "INCLINATION": 98.8699, "RA_OF_ASC_NODE": 103.1704, "ARG_OF_PERICENTER": 253.3655, "MEAN_ANOMALY": 106.5928, "EPHEMERIS_TYPE": 0, "CLASSIFICATION_TYPE": "U", "NORAD_CAT_ID": 31098, "ELEMENT_SET_NO": 999, "REV_AT_EPOCH": 96936, "BSTAR": 0.006686289, "MEAN_MOTION_DOT": 0.00026801, "MEAN_MOTION_DDOT": 0}, "tle": {"line1": "1 31098U 99025BGU 25345.29839477  .00026801  00000+0  66863-2 0  9991", "line2": "2 31098  98.8699 103.1704 0014663 253.3655 106.5928 14.51468692969367"}}, "geometry": {"type": "Point", "coordinates": [116.92260771891729, -54.55657787044411]}}, {"type": "Feature", "properties": {"norad_id": 31099, "name": "FENGYUN 1C DEB", "group": "fengyun-1c-debris", "lat": 14.049649584108234, "lon": 61.04892210901923, "alt_km": 819.8318471473394, "timestamp": "2025-12-12T07:43:20.794585+00:00", "meta": {"OBJECT_NAME": "FENGYUN 1C DEB", "OBJECT_ID": "1999-025BGV", "EPOCH": "2025-12-11T15:57:28.878048", "MEAN_MOTION": 14.27919417, "ECCENTRICITY": 0.00627136, "INCLINATION": 98.9385, "RA_OF_ASC_NODE": 238.1198, "ARG_OF_PERICENTER": 284.5792, "MEAN_ANOMALY": 107.0783, "EPHEMERIS_TYPE": 0, "CLASSIFICATION_TYPE": "U", "NORAD_CAT_ID": 31099, "ELEMENT_SET_NO": 999, "REV_AT_EPOCH": 97456, "BSTAR": 0.00047587723, "MEAN_MOTION_DOT": 1.157e-05, "MEAN_MOTION_DDOT": 0}, "tle": {"line1": "1 31099U 99025BGV 25345.66491757  .00001157  00000+0  47588-3 0  9999", "line2": "2 31099  98.9385 238.1198 0062713 284.5792 107.0783 14.27919417974566"}}, "geometry": {"type": "Point", "coordinates": [61.04892210901923, 14.049649584108234]}}, {"type": "Feature", "properties": {"norad_id": 31146, "name": "FENGYUN 1C DEB", "group": "fengyun-1c-debris", "lat": 24.340486273091575, "lon": -87.05732506827212, "alt_km": 920.1707278507856, "timestamp": "2025-12-12T07:43:20.794595+00:00", "meta": {"OBJECT_NAME": "FENGYUN 1C DEB", "OBJECT_ID": "1999-025BGY", "EPOCH": "2025-12-11T13:06:02.441376", "MEAN_MOTION": 14.27700726, "ECCENTRICITY": 0.02125393, "INCLINATION": 99.0409, "RA_OF_ASC_NODE": 276.2699, "ARG_OF_PERICENTER": 170.4839, "MEAN_ANOMALY": 190.0467, "EPHEMERIS_TYPE": 0, "CLASSIFICATION_TYPE": "U", "NORAD_CAT_ID": 31146, "ELEMENT_SET_NO": 999, "REV_AT_EPOCH": 96748, "BSTAR": 0.00051322029, "MEAN_MOTION_DOT": 1.559e-05, "MEAN_MOTION_DDOT": 0}, "tle": {"line1": "1 31146U 99025BGY 25345.54586159  .00001559  00000+0  51322-3 0  9997", "line2": "2 31146  99.0409 276.2699 0212539 170.4839 190.0467 14.27700726967480"}}, "geometry": {"type": "Point", "coordinates": [-87.05732506827212, 24.340486273091575]}}, {"type": "Feature", "properties": {"norad_id": 31148, "name": "FENGYUN 1C DEB", "group": "fengyun-1c-debris", "lat": 7.162123943960219, "lon": 52.99529903642178, "alt_km": 798.2190340047055, "timestamp": "2025-12-12T07:43:20.794606+00:00", "meta": {"OBJECT_NAME": "FENGYUN 1C DEB", "OBJECT_ID": "1999-025BHA", "EPOCH": "2025-12-10T15:00:25.932096", "MEAN_MOTION": 14.43336097, "ECCENTRICITY": 0.0136621, "INCLINATION": 98.8655, "RA_OF_ASC_NODE": 230.106, "ARG_OF_PERICENTER": 56.9202, "MEAN_ANOMALY": 304.5019, "EPHEMERIS_TYPE": 0, "CLASSIFICATION_TYPE": "U", "NORAD_CAT_ID": 31148, "ELEMENT_SET_NO": 999, "REV_AT_EPOCH": 97500, "BSTAR": 0.001247, "MEAN_MOTION_DOT": 4.658e-05, "MEAN_MOTION_DDOT": 0}, "tle": {"line1": "1 31148U 99025BHA 25344.62530014  .00004658  00000+0  12470-2 0  9999", "line2": "2 31148  98.8655 230.1060 0136621  56.9202 304.5019 14.43336097975008"}}, "geometry": {"type": "Point", "coordinates": [52.99529903642178, 7.162123943960219]}}, {"type": "Feature", "properties": {"norad_id": 31150, "name": "FENGYUN 1C DEB", "group": "fengyun-1c-debris", "lat": -30.13818223323414, "lon": 0.08214226160687345, "alt_km": 866.7295205004148, "timestamp": "2025-12-12T07:43:20.794616+00:00", "meta": {"OBJECT_NAME": "FENGYUN 1C DEB", "OBJECT_ID": "1999-025BHC", "EPOCH": "2025-12-11T23:40:16.671648", "MEAN_MOTION": 14.12732653, "ECCENTRICITY": 0.00152224, "INCLINATION": 98.686, "RA_OF_ASC_NODE": 354.6651, "ARG_OF_PERICENTER": 161.6157, "MEAN_ANOMALY": 262.7694, "EPHEMERIS_TYPE": 0, "CLASSIFICATION_TYPE": "U", "NORAD_CAT_ID": 31150, "ELEMENT_SET_NO": 999, "REV_AT_EPOCH": 96286, "BSTAR": 0.00023062629, "MEAN_MOTION_DOT": 3.86e-06, "MEAN_MOTION_DDOT": 0}, "tle": {"line1": "1 31150U 99025BHC 25345.98630407  .00000386  00000+0  23063-3 0  9994", "line2": "2 31150  98.6860 354.6651 0015222 161.6157 262.7694 14.12732653962869"}}, "geometry": {"type": "Point", "coordinates": [0.08214226160687345, -30.13818223323414]}}]}